[{"OBJECT_NAME":"SDA_1683","OBJECT_ID":"2025-230V","EPOCH":"2026-03-09T17:24:00.607392","MEAN_MOTION":13.84109242,"ECCENTRICITY":0.0001019,"INCLINATION":81.3007,"RA_OF_ASC_NODE":303.9867,"ARG_OF_PERICENTER":88.3759,"MEAN_ANOMALY":271.7514,"EPHEMERIS_TYPE":0,"CLASSIFICATION_TYPE":"U","NORAD_CAT_ID":65993,"ELEMENT_SET_NO":999,"REV_AT_EPOCH":2004,"BSTAR":-0.0044459645,"MEAN_MOTION_DOT":-4.932e-5,"MEAN_MOTION_DDOT":0},{"OBJECT_NAME":"FENGYUN 1C DEB","OBJECT_ID":"1999-025ENW","EPOCH":"2026-03-05T21:51:09.664128","MEAN_MOTION":13.9520993,"ECCENTRICITY":0.00828957,"INCLINATION":99.0096,"RA_OF_ASC_NODE":109.1372,"ARG_OF_PERICENTER":230.1652,"MEAN_ANOMALY":129.2195,"EPHEMERIS_TYPE":0,"CLASSIFICATION_TYPE":"U","NORAD_CAT_ID":37921,"ELEMENT_SET_NO":999,"REV_AT_EPOCH":64307,"BSTAR":0.0003314593,"MEAN_MOTION_DOT":4.17e-6,"MEAN_MOTION_DDOT":0}]
